start=new Date('2021-09-26T00:00:00.000Z').valueOf();
sats=[{"APOAPSIS":"548.409","FILE":"3128274","EPOCH":"2021-09-25T03:26:16.769760","CLASSIFICATION_TYPE":"U","REV_AT_EPOCH":"6388","INCLINATION":"53.0545","SITE":"AFETR","TIME_SYSTEM":"UTC","LAUNCH_DATE":"2020-08-07","MEAN_MOTION_DOT":"-0.00000338","CENTER_NAME":"EARTH","ELEMENT_SET_NO":"999","GP_ID":"185505276","MEAN_MOTION_DDOT":"0.0000000000000","ARG_OF_PERICENTER":"70.9111","MEAN_MOTION":"15.06388719","SEMIMAJOR_AXIS":"6925.383","NORAD_CAT_ID":"46056","BSTAR":"-0.00000378790000","MEAN_ELEMENT_THEORY":"SGP4","REF_FRAME":"TEME","TLE_LINE2":"2 46056  53.0545 218.4698 0001676  70.9111 289.2059 15.06388719 63880","DECAY_DATE":null,"RCS_SIZE":"LARGE","OBJECT_ID":"2020-055AF","OBJECT_TYPE":"PAYLOAD","TLE_LINE1":"1 46056U 20055AF  21268.14324965 -.00000338  00000-0 -37879-5 0  9991","PERIAPSIS":"546.087","ECCENTRICITY":"0.00016760","OBJECT_NAME":"STARLINK-1561","EPHEMERIS_TYPE":"0","COUNTRY_CODE":"US","PERIOD":"95.593","MEAN_ANOMALY":"289.2059","RA_OF_ASC_NODE":"218.4698"},{"COUNTRY_CODE":"US","EPHEMERIS_TYPE":"0","PERIAPSIS":"546.408","TLE_LINE1":"1 46058U 20055AH  21268.55237456  .00000825  00000-0  74244-4 0  9991","ECCENTRICITY":"0.00011570","OBJECT_NAME":"STARLINK-1564","OBJECT_ID":"2020-055AH","OBJECT_TYPE":"PAYLOAD","RA_OF_ASC_NODE":"216.6251","MEAN_ANOMALY":"296.8603","PERIOD":"95.592","MEAN_ELEMENT_THEORY":"SGP4","REF_FRAME":"TEME","SEMIMAJOR_AXIS":"6925.344","BSTAR":"0.00007424400000","NORAD_CAT_ID":"46058","MEAN_MOTION":"15.06401365","ARG_OF_PERICENTER":"63.2504","RCS_SIZE":"LARGE","DECAY_DATE":null,"TLE_LINE2":"2 46058  53.0540 216.6251 0001157  63.2504 296.8603 15.06401365 63935","ELEMENT_SET_NO":"999","CENTER_NAME":"EARTH","MEAN_MOTION_DOT":"0.00000825","MEAN_MOTION_DDOT":"0.0000000000000","GP_ID":"185504525","REV_AT_EPOCH":"6393","CLASSIFICATION_TYPE":"U","FILE":"3128274","EPOCH":"2021-09-25T13:15:25.161984","APOAPSIS":"548.011","LAUNCH_DATE":"2020-08-07","TIME_SYSTEM":"UTC","SITE":"AFETR","INCLINATION":"53.0540"},{"ELEMENT_SET_NO":"999","CENTER_NAME":"EARTH","MEAN_MOTION_DOT":"-0.00001765","GP_ID":"185504775","MEAN_MOTION_DDOT":"0.0000000000000","REV_AT_EPOCH":"6389","EPOCH":"2021-09-25T13:26:03.391008","FILE":"3128274","APOAPSIS":"548.317","CLASSIFICATION_TYPE":"U","TIME_SYSTEM":"UTC","LAUNCH_DATE":"2020-08-07","SITE":"AFETR","INCLINATION":"53.0530","PERIAPSIS":"546.149","TLE_LINE1":"1 46059U 20055AJ  21268.55976147 -.00001765  00000-0 -99609-4 0  9997","ECCENTRICITY":"0.00015650","OBJECT_NAME":"STARLINK-1570","COUNTRY_CODE":"US","EPHEMERIS_TYPE":"0","OBJECT_TYPE":"PAYLOAD","OBJECT_ID":"2020-055AJ","MEAN_ANOMALY":"293.9952","RA_OF_ASC_NODE":"216.6084","PERIOD":"95.593","REF_FRAME":"TEME","MEAN_ELEMENT_THEORY":"SGP4","SEMIMAJOR_AXIS":"6925.368","NORAD_CAT_ID":"46059","BSTAR":"-0.00009960900000","ARG_OF_PERICENTER":"66.1201","MEAN_MOTION":"15.06393702","DECAY_DATE":null,"RCS_SIZE":"LARGE","TLE_LINE2":"2 46059  53.0530 216.6084 0001565  66.1201 293.9952 15.06393702 63893"},{"TLE_LINE1":"1 46060U 20055AK  21268.55607459  .00000605  00000-0  59531-4 0  9996","ECCENTRICITY":"0.00015650","PERIAPSIS":"546.114","OBJECT_NAME":"STARLINK-1572","EPHEMERIS_TYPE":"0","COUNTRY_CODE":"US","OBJECT_ID":"2020-055AK","OBJECT_TYPE":"PAYLOAD","MEAN_ANOMALY":"286.4979","RA_OF_ASC_NODE":"216.6154","PERIOD":"95.592","SEMIMAJOR_AXIS":"6925.333","BSTAR":"0.00005953100000","NORAD_CAT_ID":"46060","MEAN_ELEMENT_THEORY":"SGP4","REF_FRAME":"TEME","ARG_OF_PERICENTER":"73.6182","MEAN_MOTION":"15.06405215","RCS_SIZE":"LARGE","DECAY_DATE":null,"TLE_LINE2":"2 46060  53.0543 216.6154 0001565  73.6182 286.4979 15.06405215 63909","CENTER_NAME":"EARTH","ELEMENT_SET_NO":"999","MEAN_MOTION_DOT":"0.00000605","GP_ID":"185505527","MEAN_MOTION_DDOT":"0.0000000000000","REV_AT_EPOCH":"6390","APOAPSIS":"548.281","FILE":"3128274","EPOCH":"2021-09-25T13:20:44.844576","CLASSIFICATION_TYPE":"U","TIME_SYSTEM":"UTC","LAUNCH_DATE":"2020-08-07","SITE":"AFETR","INCLINATION":"53.0543"},{"SITE":"AFETR","INCLINATION":"53.0541","TIME_SYSTEM":"UTC","LAUNCH_DATE":"2020-08-07","CLASSIFICATION_TYPE":"U","EPOCH":"2021-09-25T13:10:07.415616","FILE":"3128274","APOAPSIS":"548.309","REV_AT_EPOCH":"6393","MEAN_MOTION_DDOT":"0.0000000000000","GP_ID":"185505777","MEAN_MOTION_DOT":"0.00000864","ELEMENT_SET_NO":"999","CENTER_NAME":"EARTH","TLE_LINE2":"2 46061  53.0541 216.6388 0001611  64.2716 295.8439 15.06406619 63935","RCS_SIZE":"LARGE","DECAY_DATE":null,"MEAN_MOTION":"15.06406619","ARG_OF_PERICENTER":"64.2716","MEAN_ELEMENT_THEORY":"SGP4","REF_FRAME":"TEME","BSTAR":"0.00007687800000","SEMIMAJOR_AXIS":"6925.328","NORAD_CAT_ID":"46061","PERIOD":"95.592","RA_OF_ASC_NODE":"216.6388","MEAN_ANOMALY":"295.8439","OBJECT_ID":"2020-055AL","OBJECT_TYPE":"PAYLOAD","COUNTRY_CODE":"US","EPHEMERIS_TYPE":"0","PERIAPSIS":"546.078","TLE_LINE1":"1 46061U 20055AL  21268.54869694  .00000864  00000-0  76878-4 0  9997","ECCENTRICITY":"0.00016110","OBJECT_NAME":"STARLINK-1573"},{"MEAN_MOTION_DDOT":"0.0000000000000","GP_ID":"185504025","CENTER_NAME":"EARTH","ELEMENT_SET_NO":"999","MEAN_MOTION_DOT":"-0.00000002","LAUNCH_DATE":"2020-08-07","TIME_SYSTEM":"UTC","SITE":"AFETR","INCLINATION":"53.0544","REV_AT_EPOCH":"6390","CLASSIFICATION_TYPE":"U","APOAPSIS":"548.198","FILE":"3128274","EPOCH":"2021-09-25T13:57:54.146880","RA_OF_ASC_NODE":"216.5046","MEAN_ANOMALY":"283.6968","PERIOD":"95.593","EPHEMERIS_TYPE":"0","COUNTRY_CODE":"US","OBJECT_NAME":"STARLINK-1574","TLE_LINE1":"1 46062U 20055AM  21268.58187670 -.00000002  00000-0  18768-4 0  9998","PERIAPSIS":"546.274","ECCENTRICITY":"0.00013890","OBJECT_ID":"2020-055AM","OBJECT_TYPE":"PAYLOAD","DECAY_DATE":null,"RCS_SIZE":"LARGE","TLE_LINE2":"2 46062  53.0544 216.5046 0001389  76.4176 283.6968 15.06392747 63901","SEMIMAJOR_AXIS":"6925.371","BSTAR":"0.00001876800000","NORAD_CAT_ID":"46062","MEAN_ELEMENT_THEORY":"SGP4","REF_FRAME":"TEME","MEAN_MOTION":"15.06392747","ARG_OF_PERICENTER":"76.4176"},{"INCLINATION":"53.0544","SITE":"AFETR","TIME_SYSTEM":"UTC","LAUNCH_DATE":"2020-08-07","APOAPSIS":"548.384","FILE":"3128274","EPOCH":"2021-09-25T13:52:35.519232","CLASSIFICATION_TYPE":"U","REV_AT_EPOCH":"6393","GP_ID":"185504275","MEAN_MOTION_DDOT":"0.0000000000000","MEAN_MOTION_DOT":"0.00000217","CENTER_NAME":"EARTH","ELEMENT_SET_NO":"999","TLE_LINE2":"2 46063  53.0544 216.5194 0001677  66.9033 293.2133 15.06396918 63930","RCS_SIZE":"LARGE","DECAY_DATE":null,"ARG_OF_PERICENTER":"66.9033","MEAN_MOTION":"15.06396918","BSTAR":"0.00003348000000","SEMIMAJOR_AXIS":"6925.358","NORAD_CAT_ID":"46063","MEAN_ELEMENT_THEORY":"SGP4","REF_FRAME":"TEME","PERIOD":"95.592","MEAN_ANOMALY":"293.2133","RA_OF_ASC_NODE":"216.5194","OBJECT_TYPE":"PAYLOAD","OBJECT_ID":"2020-055AN","TLE_LINE1":"1 46063U 20055AN  21268.57818888  .00000217  00000-0  33480-4 0  9995","ECCENTRICITY":"0.00016770","PERIAPSIS":"546.062","OBJECT_NAME":"STARLINK-1577","EPHEMERIS_TYPE":"0","COUNTRY_CODE":"US"},{"MEAN_ELEMENT_THEORY":"SGP4","REF_FRAME":"TEME","SEMIMAJOR_AXIS":"6925.380","NORAD_CAT_ID":"46064","BSTAR":"-0.00000643300000","ARG_OF_PERICENTER":"80.0918","MEAN_MOTION":"15.06389785","DECAY_DATE":null,"RCS_SIZE":"LARGE","TLE_LINE2":"2 46064  53.0535 218.4473 0001649  80.0918 280.0257 15.06389785 63878","TLE_LINE1":"1 46064U 20055AP  21268.14693303 -.00000377  00000-0 -64330-5 0  9990","PERIAPSIS":"546.103","OBJECT_NAME":"STARLINK-1583","ECCENTRICITY":"0.00016490","COUNTRY_CODE":"US","EPHEMERIS_TYPE":"0","OBJECT_TYPE":"PAYLOAD","OBJECT_ID":"2020-055AP","MEAN_ANOMALY":"280.0257","RA_OF_ASC_NODE":"218.4473","PERIOD":"95.593","REV_AT_EPOCH":"6387","EPOCH":"2021-09-25T03:31:35.013792","FILE":"3128274","APOAPSIS":"548.387","CLASSIFICATION_TYPE":"U","LAUNCH_DATE":"2020-08-07","TIME_SYSTEM":"UTC","INCLINATION":"53.0535","SITE":"AFETR","ELEMENT_SET_NO":"999","CENTER_NAME":"EARTH","MEAN_MOTION_DOT":"-0.00000377","GP_ID":"185505027","MEAN_MOTION_DDOT":"0.0000000000000"},{"ELEMENT_SET_NO":"999","CENTER_NAME":"EARTH","MEAN_MOTION_DOT":"-0.00001740","GP_ID":"185505277","MEAN_MOTION_DDOT":"0.0000000000000","REV_AT_EPOCH":"6419","EPOCH":"2021-09-25T12:55:29.927712","FILE":"3128274","APOAPSIS":"548.403","CLASSIFICATION_TYPE":"U","LAUNCH_DATE":"2020-08-07","TIME_SYSTEM":"UTC","SITE":"AFETR","INCLINATION":"53.0545","TLE_LINE1":"1 46065U 20055AQ  21268.53854083 -.00001740  00000-0 -97950-4 0  9996","PERIAPSIS":"546.064","ECCENTRICITY":"0.00016890","OBJECT_NAME":"STARLINK-1515","COUNTRY_CODE":"US","EPHEMERIS_TYPE":"0","OBJECT_TYPE":"PAYLOAD","OBJECT_ID":"2020-055AQ","MEAN_ANOMALY":"297.7125","RA_OF_ASC_NODE":"196.7287","PERIOD":"95.593","MEAN_ELEMENT_THEORY":"SGP4","REF_FRAME":"TEME","BSTAR":"-0.00009795000000","SEMIMAJOR_AXIS":"6925.369","NORAD_CAT_ID":"46065","ARG_OF_PERICENTER":"62.4036","MEAN_MOTION":"15.06393458","DECAY_DATE":null,"RCS_SIZE":"LARGE","TLE_LINE2":"2 46065  53.0545 196.7287 0001689  62.4036 297.7125 15.06393458 64197"},{"OBJECT_TYPE":"PAYLOAD","OBJECT_ID":"2020-055AR","EPHEMERIS_TYPE":"0","COUNTRY_CODE":"US","OBJECT_NAME":"STARLINK-1525","TLE_LINE1":"1 46066U 20055AR  21268.54316945 -.00005838  00000-0 -37322-3 0  9996","PERIAPSIS":"545.872","ECCENTRICITY":"0.00018940","PERIOD":"95.592","RA_OF_ASC_NODE":"196.6780","MEAN_ANOMALY":"284.6380","MEAN_MOTION":"15.06409596","ARG_OF_PERICENTER":"75.4819","NORAD_CAT_ID":"46066","SEMIMAJOR_AXIS":"6925.319","BSTAR":"-0.00037322000000","MEAN_ELEMENT_THEORY":"SGP4","REF_FRAME":"TEME","TLE_LINE2":"2 46066  53.0555 196.6780 0001894  75.4819 284.6380 15.06409596 64208","RCS_SIZE":"LARGE","DECAY_DATE":null,"MEAN_MOTION_DOT":"-0.00005838","CENTER_NAME":"EARTH","ELEMENT_SET_NO":"999","MEAN_MOTION_DDOT":"0.0000000000000","GP_ID":"185504526","CLASSIFICATION_TYPE":"U","APOAPSIS":"548.496","FILE":"3128274","EPOCH":"2021-09-25T13:02:09.840480","REV_AT_EPOCH":"6420","SITE":"AFETR","INCLINATION":"53.0555","TIME_SYSTEM":"UTC","LAUNCH_DATE":"2020-08-07"}];
